NORAD_CAT_ID,OBJECT_NAME,OBJECT_TYPE,EPOCH,MEAN_MOTION,ECCENTRICITY,INCLINATION,RA_OF_ASC_NODE,ARG_OF_PERICENTER,MEAN_ANOMALY,BSTAR,MEAN_MOTION_DOT,MEAN_MOTION_DDOT,TLE_LINE0,TLE_LINE1,TLE_LINE2,SEMIMAJOR_AXIS,PERIOD,APOGEE,PERIGEE,DECAYED
52582.0,STARLINK-3886,PAYLOAD,2023-01-13 08:42:32,15.08832264,0.0002613,53.2174,247.6327,36.6239,323.4932,-7.1962e-05,-1.433e-05,0.0,0 STARLINK-3886,1 52582U 22051AY  23013.36287935 -.00001433  00000-0 -71962-4 0  9996,2 52582  53.2174 247.6327 0002613  36.6239 323.4932 15.08832264 37845,6917.904,95.438,541.577,537.961,0.0
52582.0,STARLINK-3886,PAYLOAD,2023-01-13 21:25:37,15.08842235,0.0002601,53.2171,245.2537,36.3226,323.7942,0.000153,2.148e-05,0.0,0 STARLINK-3886,1 52582U 22051AY  23013.89279766  .00002148  00000-0  15300-3 0  9992,2 52582  53.2171 245.2537 0002601  36.3226 323.7942 15.08842235 37853,6917.874,95.437,541.538,537.939,0.0
52582.0,STARLINK-3886,PAYLOAD,2023-01-14 00:36:24,15.0884408,0.0002593999999999,53.2165,244.6586,37.676,322.4414,0.00038099,5.781e-05,0.0,0 STARLINK-3886,1 52582U 22051AY  23014.02527920  .00005781  00000-0  38099-3 0  9992,2 52582  53.2165 244.6586 0002594  37.6760 322.4414 15.08844080 37941,6917.868,95.437,541.5269999999999,537.938,0.0
52582.0,STARLINK-3886,PAYLOAD,2023-01-14 14:54:53,15.08833719,0.000271,53.2147,241.9837,41.4991,318.6207,0.00029217,4.364e-05,0.0,0 STARLINK-3886,1 52582U 22051AY  23014.62144724  .00004364  00000-0  29217-3 0  9993,2 52582  53.2147 241.9837 0002710  41.4991 318.6207 15.08833719 38034,6917.9,95.438,541.639,537.89,0.0
52582.0,STARLINK-3886,PAYLOAD,2023-01-15 08:24:07,15.08836695,0.0002613,53.2148,238.713,42.6958,317.4236,0.00016776,2.382e-05,0.0,0 STARLINK-3886,1 52582U 22051AY  23015.35008825  .00002382  00000-0  16776-3 0  9999,2 52582  53.2148 238.7130 0002613  42.6958 317.4236 15.08836695 38072,6917.89,95.438,541.563,537.948,0.0
52582.0,STARLINK-3886,PAYLOAD,2023-01-15 21:07:12,15.08846251,0.0002415,53.2159,236.3311,49.6477,310.4725,0.00023354,3.431e-05,0.0,0 STARLINK-3886,1 52582U 22051AY  23015.88000367  .00003431  00000-0  23354-3 0  9996,2 52582  53.2159 236.3311 0002415  49.6477 310.4725 15.08846251 38224,6917.861,95.437,541.3969999999999,538.056,0.0
52582.0,STARLINK-3886,PAYLOAD,2023-01-16 20:57:59,15.08834474,0.0002156,53.217,231.8692,53.0305,307.0884,0.00011288,1.508e-05,0.0,0 STARLINK-3886,1 52582U 22051AY  23016.87361029  .00001508  00000-0  11288-3 0  9997,2 52582  53.2170 231.8692 0002156  53.0305 307.0884 15.08834474 38378,6917.897,95.438,541.254,538.271,0.0
52582.0,STARLINK-3886,PAYLOAD,2023-01-17 14:27:14,15.08834206,0.0002099,53.216,228.6,52.1306,307.9875,4.181e-06,-2.22e-06,0.0,0 STARLINK-3886,1 52582U 22051AY  23017.60225255 -.00000222  00000-0  41810-5 0  9998,2 52582  53.2160 228.6000 0002099  52.1306 307.9875 15.08834206 38418,6917.898,95.438,541.215,538.311,0.0
52582.0,STARLINK-3886,PAYLOAD,2023-01-17 23:59:33,15.08839543,0.0002130999999999,53.2159,226.8159,51.7868,308.3316,3.3055e-05,2.38e-06,0.0,0 STARLINK-3886,1 52582U 22051AY  23017.99969029  .00000238  00000-0  33055-4 0  9991,2 52582  53.2159 226.8159 0002131  51.7868 308.3316 15.08839543 38544,6917.882,95.438,541.221,538.273,0.0
52582.0,STARLINK-3886,PAYLOAD,2023-01-18 06:21:05,15.08842773,0.0002121999999999,53.2165,225.6264,50.4934,309.6245,3.2947e-05,2.36e-06,0.0,0 STARLINK-3886,1 52582U 22051AY  23018.26464991  .00000236  00000-0  32947-4 0  9997,2 52582  53.2165 225.6264 0002122  50.4934 309.6245 15.08842773 38516,6917.871999999999,95.437,541.205,538.269,0.0
52582.0,STARLINK-3886,PAYLOAD,2023-01-18 20:39:34,15.08840076,0.000207,53.2168,222.9498,53.7404,306.3779,0.00016066,2.27e-05,0.0,0 STARLINK-3886,1 52582U 22051AY  23018.86081093  .00002270  00000-0  16066-3 0  9994,2 52582  53.2168 222.9498 0002070  53.7404 306.3779 15.08840076 38608,6917.88,95.438,541.177,538.313,0.0
52582.0,STARLINK-3886,PAYLOAD,2023-01-19 06:11:53,15.08838877,0.0002089999999999,53.2166,221.1656,54.0087,306.1099,0.00014372,2e-05,0.0,0 STARLINK-3886,1 52582U 22051AY  23019.25825351  .00002000  00000-0  14372-3 0  9990,2 52582  53.2166 221.1656 0002090  54.0087 306.1099 15.08838877 38739,6917.884,95.438,541.195,538.303,0.0
52582.0,STARLINK-3886,PAYLOAD,2023-01-19 14:08:49,15.08835836,0.0001973,53.217,219.6792,60.7326,299.3864,6.4213e-05,7.34e-06,0.0,0 STARLINK-3886,1 52582U 22051AY  23019.58945783  .00000734  00000-0  64213-4 0  9990,2 52582  53.2170 219.6792 0001973  60.7326 299.3864 15.08835836 38719,6917.893,95.438,541.123,538.393,0.0
52582.0,STARLINK-3886,PAYLOAD,2023-01-20 06:02:40,15.08839249,0.0001927,53.2172,216.7058,63.9621,296.1569,9.5239e-05,1.228e-05,0.0,0 STARLINK-3886,1 52582U 22051AY  23020.25185496  .00001228  00000-0  95239-4 0  9994,2 52582  53.2172 216.7058 0001927  63.9621 296.1569 15.08839249 38816,6917.883000000001,95.438,541.081,538.415,0.0
52582.0,STARLINK-3886,PAYLOAD,2023-01-20 21:56:31,15.08843205,0.0001947,53.2171,213.7324,64.7629,295.3565,8.2338e-05,1.023e-05,0.0,0 STARLINK-3886,1 52582U 22051AY  23020.91425231  .00001023  00000-0  82338-4 0  9990,2 52582  53.2171 213.7324 0001947  64.7629 295.3565 15.08843205 38989,6917.871,95.437,541.0830000000001,538.389,0.0
52582.0,STARLINK-3886,PAYLOAD,2023-01-22 12:05:46,15.08843714,0.0001846,53.217,206.5957,66.0837,294.0348,0.00010361,1.361e-05,0.0,0 STARLINK-3886,1 52582U 22051AY  23022.50401025  .00001361  00000-0  10361-3 0  9993,2 52582  53.2170 206.5957 0001846  66.0837 294.0348 15.08843714 39222,6917.869000000001,95.437,541.011,538.457,0.0
52582.0,STARLINK-3886,PAYLOAD,2023-01-23 05:34:58,15.08866052,0.0001885999999999,53.2181,203.3254,67.5,292.6191,0.00023863,3.514e-05,0.0,0 STARLINK-3886,1 52582U 22051AY  23023.23262725  .00003514  00000-0  23863-3 0  9999,2 52582  53.2181 203.3254 0001886  67.5000 292.6191 15.08866052 39333,6917.801,95.436,540.97,538.361,0.0
52582.0,STARLINK-3886,PAYLOAD,2023-01-23 21:28:50,15.08854352,8.26e-05,53.2207,200.3516,21.5413,338.5614,-0.00014628,-2.616e-05,0.0,0 STARLINK-3886,1 52582U 22051AY  23023.89503469 -.00002616  00000-0 -14628-3 0  9997,2 52582  53.2207 200.3516 0000826  21.5413 338.5614 15.08854352 39432,6917.837,95.437,540.273,539.13,0.0
52582.0,STARLINK-3886,PAYLOAD,2023-01-24 11:47:20,15.08833276,0.0001758,53.2176,197.6745,76.9105,283.2083,-6.4539e-05,-1.315e-05,0.0,0 STARLINK-3886,1 52582U 22051AY  23024.49121345 -.00001315  00000-0 -64539-4 0  9995,2 52582  53.2176 197.6745 0001758  76.9105 283.2083 15.08833276 39524,6917.901,95.438,540.982,538.55,0.0
52582.0,STARLINK-3886,PAYLOAD,2023-01-24 18:08:53,15.08837754,0.0001826,53.2169,196.4854,72.9403,287.17900000000003,-9.8407e-06,-4.45e-06,0.0,0 STARLINK-3886,1 52582U 22051AY  23024.75617020 -.00000445  00000-0 -98407-5 0  9999,2 52582  53.2169 196.4854 0001826  72.9403 287.1790 15.08837754 39496,6917.887,95.438,541.015,538.489,0.0
52582.0,STARLINK-3886,PAYLOAD,2023-01-25 14:48:53,15.08853857,0.0001621999999999,53.2171,192.6191,77.37100000000001,282.7464,-0.00033023,-5.542e-05,0.0,0 STARLINK-3886,1 52582U 22051AY  23025.61728453 -.00005542  00000-0 -33023-3 0  9992,2 52582  53.2171 192.6191 0001622  77.3710 282.7464 15.08853857 39698,6917.838000000001,95.437,540.825,538.581,0.0
52582.0,STARLINK-3886,PAYLOAD,2023-01-25 17:59:38,15.08886703,0.0002070999999999,53.217,192.0245,74.8446,285.2775,-0.00078565,-0.00012786,0.0,0 STARLINK-3886,1 52582U 22051AY  23025.74974762 -.00012786  00000-0 -78565-3 0  9990,2 52582  53.2170 192.0245 0002071  74.8446 285.2775 15.08886703 39710,6917.738,95.435,541.035,538.17,0.0
52582.0,STARLINK-3886,PAYLOAD,2023-01-26 03:31:59,15.08829568,0.0001774999999999,53.217,190.2404,84.0285,276.0909,0.00017409,2.483e-05,0.0,0 STARLINK-3886,1 52582U 22051AY  23026.14721528  .00002483  00000-0  17409-3 0  9996,2 52582  53.2170 190.2404 0001775  84.0285 276.0909 15.08829568 39770,6917.911999999999,95.438,541.005,538.549,0.0
52582.0,STARLINK-3886,PAYLOAD,2023-01-26 14:39:41,15.08835795,0.0001747,53.2173,188.1586,83.1508,276.9682,0.00013216,1.816e-05,0.0,0 STARLINK-3886,1 52582U 22051AY  23026.61089536  .00001816  00000-0  13216-3 0  9995,2 52582  53.2173 188.1586 0001747  83.1508 276.9682 15.08835795 39773,6917.893,95.438,540.967,538.55,0.0
52582.0,STARLINK-3886,PAYLOAD,2023-01-27 14:30:28,15.08839305,0.000169,53.2175,183.6981,82.8221,277.2963,9.8929e-05,1.287e-05,0.0,0 STARLINK-3886,1 52582U 22051AY  23027.60449767  .00001287  00000-0  98929-4 0  9998,2 52582  53.2175 183.6981 0001690  82.8221 277.2963 15.08839305 39990,6917.883000000001,95.438,540.9169999999999,538.578,0.0
52582.0,STARLINK-3886,PAYLOAD,2023-01-27 17:41:14,15.08840034,0.0001676999999999,53.2179,183.1032,80.3077,279.8105,9.6454e-05,1.247e-05,0.0,0 STARLINK-3886,1 52582U 22051AY  23027.73697736  .00001247  00000-0  96454-4 0  9990,2 52582  53.2179 183.1032 0001677  80.3077 279.8105 15.08840034 39945,6917.88,95.438,540.905,538.585,0.0
52582.0,STARLINK-3886,PAYLOAD,2023-01-28 11:10:29,15.08837353,0.0001629,53.2177,179.8335,83.5272,276.5906,5.5818e-05,6e-06,0.0,0 STARLINK-3886,1 52582U 22051AY  23028.46562095  .00000600  00000-0  55818-4 0  9991,2 52582  53.2177 179.8335 0001629  83.5272 276.5906 15.08837353 40057,6917.888,95.438,540.88,538.627,0.0
52582.0,STARLINK-3886,PAYLOAD,2023-01-28 19:07:24,15.08850142,0.0001578,53.2177,178.3463,85.4055,274.7117,1.68e-05,-2.1e-07,0.0,0 STARLINK-3886,1 52582U 22051AY  23028.79681352 -.00000021  00000-0  16800-4 0  9991,2 52582  53.2177 178.3463 0001578  85.4055 274.7117 15.08850142 40174,6917.849,95.437,540.806,538.623,0.0
52582.0,STARLINK-3886,PAYLOAD,2023-01-29 03:04:21,15.08837372,0.0001658,53.2187,176.8601,87.9627,272.1555,6.3709e-05,7.26e-06,0.0,0 STARLINK-3886,1 52582U 22051AY  23029.12802096  .00000726  00000-0  63709-4 0  9990,2 52582  53.2187 176.8601 0001658  87.9627 272.1555 15.08837372 40227,6917.888,95.438,540.9,538.606,0.0
